ORBCOMM FM05 [-]        
1 25117U 97084F   24048.70255664  .00003230  00000+0  10144-2 0  9996
2 25117  45.0139 171.9960 0002993 274.3037  85.7470 14.42193617370438
ORBCOMM FM06 [+]        
1 25118U 97084G   24048.59565017  .00003521  00000+0  11019-2 0  9995
2 25118  45.0134 172.6874 0002175 271.3158 102.6145 14.42186322371332
ORBCOMM FM07 [-]        
1 25119U 97084H   24048.71850997  .00003305  00000+0  10384-2 0  9998
2 25119  45.0127 172.5936 0003900 269.2555  90.7848 14.42116939371342
ORBCOMM FM03 [-]        
1 25158U 98007B   24048.73967909  .00002213  00000+0  86440-3 0  9995
2 25158 107.9764 220.3030 0046492  13.7144 346.5247 14.31847091354496
ORBCOMM FM04 [+]        
1 25159U 98007C   24048.74312859  .00002097  00000+0  81925-3 0  9998
2 25159 107.9751 223.1929 0042131  11.2626 348.9447 14.32101576354664
ORBCOMM FM17 [-]        
1 25413U 98046A   24048.24872117  .00002124  00000+0  82252-3 0  9992
2 25413  44.9959  26.7912 0004062 297.9813  62.0622 14.32822088333426
ORBCOMM FM18 [-]        
1 25414U 98046B   24048.81769598  .00002322  00000+0  84870-3 0  9992
2 25414  44.9940 312.9324 0005036 356.9394   3.1422 14.35486603334434
ORBCOMM FM19 [+]        
1 25415U 98046C   24048.86584451  .00002179  00000+0  80212-3 0  9997
2 25415  44.9950 314.0061 0003967 348.8910 124.5643 14.35322700334409
